STARLINK-37148
1 68310U 26057S   26092.83335647 -.01589642  69613-3 -53939-2 0  9992
2 68310  97.2753 216.3805 0001489  72.4678 119.5375 15.89957996  3141
